<?xml version="1.0" encoding="UTF-8"?>
<ndm xmlns:xsi="http://www.w3.org/2001/XMLSchema-instance" xsi:noNamespaceSchemaLocation="https://sanaregistry.org/r/ndmxml_unqualified/ndmxml-2.0.0-master-2.0.xsd">
<omm id="CCSDS_OMM_VERS" version="2.0">
<header><CREATION_DATE/><ORIGINATOR/></header><body><segment><metadata><OBJECT_NAME>KUIPER-00136</OBJECT_NAME><OBJECT_ID>2025-228R</OBJECT_ID><CENTER_NAME>EARTH</CENTER_NAME><REF_FRAME>TEME</REF_FRAME><TIME_SYSTEM>UTC</TIME_SYSTEM><MEAN_ELEMENT_THEORY>SGP4</MEAN_ELEMENT_THEORY></metadata><data><meanElements><EPOCH>2025-11-28T01:34:41.886912</EPOCH><MEAN_MOTION>15.35760072</MEAN_MOTION><ECCENTRICITY>.0005838</ECCENTRICITY><INCLINATION>51.8796</INCLINATION><RA_OF_ASC_NODE>91.2077</RA_OF_ASC_NODE><ARG_OF_PERICENTER>304.2507</ARG_OF_PERICENTER><MEAN_ANOMALY>55.7926</MEAN_ANOMALY></meanElements><tleParameters><EPHEMERIS_TYPE>0</EPHEMERIS_TYPE><CLASSIFICATION_TYPE>U</CLASSIFICATION_TYPE><NORAD_CAT_ID>65962</NORAD_CAT_ID><ELEMENT_SET_NO>999</ELEMENT_SET_NO><REV_AT_EPOCH>816</REV_AT_EPOCH><BSTAR>.10655E-2</BSTAR><MEAN_MOTION_DOT>.37452E-3</MEAN_MOTION_DOT><MEAN_MOTION_DDOT>0</MEAN_MOTION_DDOT></tleParameters></data></segment></body></omm>
<omm id="CCSDS_OMM_VERS" version="2.0">
<header><CREATION_DATE/><ORIGINATOR/></header><body><segment><metadata><OBJECT_NAME>KUIPER-00137</OBJECT_NAME><OBJECT_ID>2025-228S</OBJECT_ID><CENTER_NAME>EARTH</CENTER_NAME><REF_FRAME>TEME</REF_FRAME><TIME_SYSTEM>UTC</TIME_SYSTEM><MEAN_ELEMENT_THEORY>SGP4</MEAN_ELEMENT_THEORY></metadata><data><meanElements><EPOCH>2025-11-27T16:30:35.696160</EPOCH><MEAN_MOTION>15.35081044</MEAN_MOTION><ECCENTRICITY>.00051147</ECCENTRICITY><INCLINATION>51.8792</INCLINATION><RA_OF_ASC_NODE>93.1743</RA_OF_ASC_NODE><ARG_OF_PERICENTER>314.0364</ARG_OF_PERICENTER><MEAN_ANOMALY>46.0200</MEAN_ANOMALY></meanElements><tleParameters><EPHEMERIS_TYPE>0</EPHEMERIS_TYPE><CLASSIFICATION_TYPE>U</CLASSIFICATION_TYPE><NORAD_CAT_ID>65963</NORAD_CAT_ID><ELEMENT_SET_NO>999</ELEMENT_SET_NO><REV_AT_EPOCH>810</REV_AT_EPOCH><BSTAR>.13180427E-2</BSTAR><MEAN_MOTION_DOT>.45461E-3</MEAN_MOTION_DOT><MEAN_MOTION_DDOT>0</MEAN_MOTION_DDOT></tleParameters></data></segment></body></omm>
<omm id="CCSDS_OMM_VERS" version="2.0">
<header><CREATION_DATE/><ORIGINATOR/></header><body><segment><metadata><OBJECT_NAME>KUIPER-00138</OBJECT_NAME><OBJECT_ID>2025-228T</OBJECT_ID><CENTER_NAME>EARTH</CENTER_NAME><REF_FRAME>TEME</REF_FRAME><TIME_SYSTEM>UTC</TIME_SYSTEM><MEAN_ELEMENT_THEORY>SGP4</MEAN_ELEMENT_THEORY></metadata><data><meanElements><EPOCH>2025-11-27T15:02:29.484960</EPOCH><MEAN_MOTION>15.35110411</MEAN_MOTION><ECCENTRICITY>.0006838</ECCENTRICITY><INCLINATION>51.8774</INCLINATION><RA_OF_ASC_NODE>93.5041</RA_OF_ASC_NODE><ARG_OF_PERICENTER>324.0047</ARG_OF_PERICENTER><MEAN_ANOMALY>36.0477</MEAN_ANOMALY></meanElements><tleParameters><EPHEMERIS_TYPE>0</EPHEMERIS_TYPE><CLASSIFICATION_TYPE>U</CLASSIFICATION_TYPE><NORAD_CAT_ID>65964</NORAD_CAT_ID><ELEMENT_SET_NO>999</ELEMENT_SET_NO><REV_AT_EPOCH>809</REV_AT_EPOCH><BSTAR>.10491196E-2</BSTAR><MEAN_MOTION_DOT>.36107E-3</MEAN_MOTION_DOT><MEAN_MOTION_DDOT>0</MEAN_MOTION_DDOT></tleParameters></data></segment></body></omm>
<omm id="CCSDS_OMM_VERS" version="2.0">
<header><CREATION_DATE/><ORIGINATOR/></header><body><segment><metadata><OBJECT_NAME>KUIPER-00140</OBJECT_NAME><OBJECT_ID>2025-228U</OBJECT_ID><CENTER_NAME>EARTH</CENTER_NAME><REF_FRAME>TEME</REF_FRAME><TIME_SYSTEM>UTC</TIME_SYSTEM><MEAN_ELEMENT_THEORY>SGP4</MEAN_ELEMENT_THEORY></metadata><data><meanElements><EPOCH>2025-11-27T15:07:30.639936</EPOCH><MEAN_MOTION>15.34609534</MEAN_MOTION><ECCENTRICITY>.00069671</ECCENTRICITY><INCLINATION>51.8790</INCLINATION><RA_OF_ASC_NODE>93.5323</RA_OF_ASC_NODE><ARG_OF_PERICENTER>320.3779</ARG_OF_PERICENTER><MEAN_ANOMALY>39.6697</MEAN_ANOMALY></meanElements><tleParameters><EPHEMERIS_TYPE>0</EPHEMERIS_TYPE><CLASSIFICATION_TYPE>U</CLASSIFICATION_TYPE><NORAD_CAT_ID>65965</NORAD_CAT_ID><ELEMENT_SET_NO>999</ELEMENT_SET_NO><REV_AT_EPOCH>809</REV_AT_EPOCH><BSTAR>.86164592E-3</BSTAR><MEAN_MOTION_DOT>.29087E-3</MEAN_MOTION_DOT><MEAN_MOTION_DDOT>0</MEAN_MOTION_DDOT></tleParameters></data></segment></body></omm>
<omm id="CCSDS_OMM_VERS" version="2.0">
<header><CREATION_DATE/><ORIGINATOR/></header><body><segment><metadata><OBJECT_NAME>KUIPER-00141</OBJECT_NAME><OBJECT_ID>2025-228V</OBJECT_ID><CENTER_NAME>EARTH</CENTER_NAME><REF_FRAME>TEME</REF_FRAME><TIME_SYSTEM>UTC</TIME_SYSTEM><MEAN_ELEMENT_THEORY>SGP4</MEAN_ELEMENT_THEORY></metadata><data><meanElements><EPOCH>2025-11-27T14:43:56.622720</EPOCH><MEAN_MOTION>15.35685242</MEAN_MOTION><ECCENTRICITY>.0005753</ECCENTRICITY><INCLINATION>51.8785</INCLINATION><RA_OF_ASC_NODE>93.4198</RA_OF_ASC_NODE><ARG_OF_PERICENTER>309.7829</ARG_OF_PERICENTER><MEAN_ANOMALY>50.2650</MEAN_ANOMALY></meanElements><tleParameters><EPHEMERIS_TYPE>0</EPHEMERIS_TYPE><CLASSIFICATION_TYPE>U</CLASSIFICATION_TYPE><NORAD_CAT_ID>65966</NORAD_CAT_ID><ELEMENT_SET_NO>999</ELEMENT_SET_NO><REV_AT_EPOCH>809</REV_AT_EPOCH><BSTAR>.8420627E-3</BSTAR><MEAN_MOTION_DOT>.29414E-3</MEAN_MOTION_DOT><MEAN_MOTION_DDOT>0</MEAN_MOTION_DDOT></tleParameters></data></segment></body></omm>
<omm id="CCSDS_OMM_VERS" version="2.0">
<header><CREATION_DATE/><ORIGINATOR/></header><body><segment><metadata><OBJECT_NAME>KUIPER-00146</OBJECT_NAME><OBJECT_ID>2025-228W</OBJECT_ID><CENTER_NAME>EARTH</CENTER_NAME><REF_FRAME>TEME</REF_FRAME><TIME_SYSTEM>UTC</TIME_SYSTEM><MEAN_ELEMENT_THEORY>SGP4</MEAN_ELEMENT_THEORY></metadata><data><meanElements><EPOCH>2025-11-27T14:52:23.645568</EPOCH><MEAN_MOTION>15.35160200</MEAN_MOTION><ECCENTRICITY>.00063212</ECCENTRICITY><INCLINATION>51.8793</INCLINATION><RA_OF_ASC_NODE>93.4680</RA_OF_ASC_NODE><ARG_OF_PERICENTER>311.4613</ARG_OF_PERICENTER><MEAN_ANOMALY>48.5830</MEAN_ANOMALY></meanElements><tleParameters><EPHEMERIS_TYPE>0</EPHEMERIS_TYPE><CLASSIFICATION_TYPE>U</CLASSIFICATION_TYPE><NORAD_CAT_ID>65967</NORAD_CAT_ID><ELEMENT_SET_NO>999</ELEMENT_SET_NO><REV_AT_EPOCH>809</REV_AT_EPOCH><BSTAR>.60245602E-3</BSTAR><MEAN_MOTION_DOT>.20559E-3</MEAN_MOTION_DOT><MEAN_MOTION_DDOT>0</MEAN_MOTION_DDOT></tleParameters></data></segment></body></omm>
<omm id="CCSDS_OMM_VERS" version="2.0">
<header><CREATION_DATE/><ORIGINATOR/></header><body><segment><metadata><OBJECT_NAME>KUIPER-00149</OBJECT_NAME><OBJECT_ID>2025-228X</OBJECT_ID><CENTER_NAME>EARTH</CENTER_NAME><REF_FRAME>TEME</REF_FRAME><TIME_SYSTEM>UTC</TIME_SYSTEM><MEAN_ELEMENT_THEORY>SGP4</MEAN_ELEMENT_THEORY></metadata><data><meanElements><EPOCH>2025-11-28T01:34:26.190624</EPOCH><MEAN_MOTION>15.35802536</MEAN_MOTION><ECCENTRICITY>.0005455</ECCENTRICITY><INCLINATION>51.8778</INCLINATION><RA_OF_ASC_NODE>91.2005</RA_OF_ASC_NODE><ARG_OF_PERICENTER>304.8243</ARG_OF_PERICENTER><MEAN_ANOMALY>55.2230</MEAN_ANOMALY></meanElements><tleParameters><EPHEMERIS_TYPE>0</EPHEMERIS_TYPE><CLASSIFICATION_TYPE>U</CLASSIFICATION_TYPE><NORAD_CAT_ID>65968</NORAD_CAT_ID><ELEMENT_SET_NO>999</ELEMENT_SET_NO><REV_AT_EPOCH>816</REV_AT_EPOCH><BSTAR>.12501E-2</BSTAR><MEAN_MOTION_DOT>.44105E-3</MEAN_MOTION_DOT><MEAN_MOTION_DDOT>0</MEAN_MOTION_DDOT></tleParameters></data></segment></body></omm>
<omm id="CCSDS_OMM_VERS" version="2.0">
<header><CREATION_DATE/><ORIGINATOR/></header><body><segment><metadata><OBJECT_NAME>KUIPER-00154</OBJECT_NAME><OBJECT_ID>2025-228Y</OBJECT_ID><CENTER_NAME>EARTH</CENTER_NAME><REF_FRAME>TEME</REF_FRAME><TIME_SYSTEM>UTC</TIME_SYSTEM><MEAN_ELEMENT_THEORY>SGP4</MEAN_ELEMENT_THEORY></metadata><data><meanElements><EPOCH>2025-11-28T01:37:12.405216</EPOCH><MEAN_MOTION>15.35433984</MEAN_MOTION><ECCENTRICITY>.0006046</ECCENTRICITY><INCLINATION>51.8795</INCLINATION><RA_OF_ASC_NODE>91.2136</RA_OF_ASC_NODE><ARG_OF_PERICENTER>306.7207</ARG_OF_PERICENTER><MEAN_ANOMALY>53.3223</MEAN_ANOMALY></meanElements><tleParameters><EPHEMERIS_TYPE>0</EPHEMERIS_TYPE><CLASSIFICATION_TYPE>U</CLASSIFICATION_TYPE><NORAD_CAT_ID>65969</NORAD_CAT_ID><ELEMENT_SET_NO>999</ELEMENT_SET_NO><REV_AT_EPOCH>816</REV_AT_EPOCH><BSTAR>.16501E-2</BSTAR><MEAN_MOTION_DOT>.57763E-3</MEAN_MOTION_DOT><MEAN_MOTION_DDOT>0</MEAN_MOTION_DDOT></tleParameters></data></segment></body></omm>

</ndm>
