KUIPER-00136            
1 65962U 25228R   25332.06576258  .00037452  00000+0  10655-2 0  9990
2 65962  51.8796  91.2077 0005838 304.2507  55.7926 15.35760072  8162
KUIPER-00137            
1 65963U 25228S   25331.68791315  .00045461  00000+0  13180-2 0  9996
2 65963  51.8792  93.1743 0005114 314.0364  46.0200 15.35081044  8104
KUIPER-00138            
1 65964U 25228T   25331.62673015  .00036107  00000+0  10491-2 0  9996
2 65964  51.8774  93.5041 0006838 324.0047  36.0477 15.35110411  8097
KUIPER-00140            
1 65965U 25228U   25331.63021574  .00029087  00000+0  86165-3 0  9996
2 65965  51.8790  93.5323 0006967 320.3779  39.6697 15.34609534  8094
KUIPER-00141            
1 65966U 25228V   25331.61384980  .00029414  00000+0  84206-3 0  9996
2 65966  51.8785  93.4198 0005753 309.7829  50.2650 15.35685242  8096
KUIPER-00146            
1 65967U 25228W   25331.61971812  .00020559  00000+0  60246-3 0  9992
2 65967  51.8793  93.4680 0006321 311.4613  48.5830 15.35160200  8097
KUIPER-00149            
1 65968U 25228X   25332.06558091  .00044105  00000+0  12501-2 0  9996
2 65968  51.8778  91.2005 0005455 304.8243  55.2230 15.35802536  8162
KUIPER-00154            
1 65969U 25228Y   25332.06750469  .00057763  00000+0  16501-2 0  9998
2 65969  51.8795  91.2136 0006046 306.7207  53.3223 15.35433984  8163
